[{"OBJECT_NAME":"STARLINK-4737","OBJECT_ID":"2022-114S","EPOCH":"2026-03-09T22:31:40.993824","MEAN_MOTION":15.08819822,"ECCENTRICITY":0.00012615,"INCLINATION":53.2179,"RA_OF_ASC_NODE":302.6732,"ARG_OF_PERICENTER":91.4079,"MEAN_ANOMALY":268.7058,"EPHEMERIS_TYPE":0,"CLASSIFICATION_TYPE":"U","NORAD_CAT_ID":53834,"ELEMENT_SET_NO":999,"REV_AT_EPOCH":19287,"BSTAR":0.00013137446,"MEAN_MOTION_DOT":1.802e-5,"MEAN_MOTION_DDOT":0},{"OBJECT_NAME":"ICON","OBJECT_ID":"2019-068A","EPOCH":"2026-03-09T22:35:01.599072","MEAN_MOTION":15.06276737,"ECCENTRICITY":0.00134076,"INCLINATION":26.9847,"RA_OF_ASC_NODE":325.9297,"ARG_OF_PERICENTER":187.0145,"MEAN_ANOMALY":173.0229,"EPHEMERIS_TYPE":0,"CLASSIFICATION_TYPE":"U","NORAD_CAT_ID":44628,"ELEMENT_SET_NO":999,"REV_AT_EPOCH":35105,"BSTAR":0.00030799545,"MEAN_MOTION_DOT":4.879e-5,"MEAN_MOTION_DDOT":0}]
